[{"OBJECT_NAME":"YUNHAI-2 01C","OBJECT_ID":"2018-112C","EPOCH":"2026-03-09T23:40:43.339008","MEAN_MOTION":14.28951205,"ECCENTRICITY":5.385e-5,"INCLINATION":50.0116,"RA_OF_ASC_NODE":48.4892,"ARG_OF_PERICENTER":172.1642,"MEAN_ANOMALY":187.9282,"EPHEMERIS_TYPE":0,"CLASSIFICATION_TYPE":"U","NORAD_CAT_ID":43911,"ELEMENT_SET_NO":999,"REV_AT_EPOCH":37760,"BSTAR":8.3785899e-5,"MEAN_MOTION_DOT":5.2e-7,"MEAN_MOTION_DDOT":0},{"OBJECT_NAME":"DMSP 5D-2 F13 DEB","OBJECT_ID":"1995-015DR","EPOCH":"2026-03-08T21:58:01.414560","MEAN_MOTION":14.24073203,"ECCENTRICITY":0.0044133,"INCLINATION":98.9622,"RA_OF_ASC_NODE":60.2207,"ARG_OF_PERICENTER":353.5115,"MEAN_ANOMALY":6.5486,"EPHEMERIS_TYPE":0,"CLASSIFICATION_TYPE":"U","NORAD_CAT_ID":40558,"ELEMENT_SET_NO":999,"REV_AT_EPOCH":56227,"BSTAR":0.0024980141,"MEAN_MOTION_DOT":5.759e-5,"MEAN_MOTION_DDOT":0}]
